OBJECT_NAME,OBJECT_ID,EPOCH,MEAN_MOTION,ECCENTRICITY,INCLINATION,RA_OF_ASC_NODE,ARG_OF_PERICENTER,MEAN_ANOMALY,EPHEMERIS_TYPE,CLASSIFICATION_TYPE,NORAD_CAT_ID,ELEMENT_SET_NO,REV_AT_EPOCH,BSTAR,MEAN_MOTION_DOT,MEAN_MOTION_DDOT
STARLINK-3844,2022-053BB,2026-07-22T06:00:02.000160,15.35309341,.00013892,53.1596,247.6594,72.9886,132.1347,0,U,52705,999,579,.1357592E-2,.47134E-3,0
STARLINK-3970,2022-053BC,2026-07-22T06:00:02.000160,15.30150898,.00014813,53.1592,247.8973,58.9357,5.1599,0,U,52706,999,574,.36687703E-1,.1178765E-1,0
STARLINK-4007,2022-053BD,2026-07-21T12:11:04.525728,15.11711283,.00010992,53.2146,252.3297,20.1392,339.9645,0,U,52707,999,23159,.53082511E-3,.886E-4,0
STARLINK-3962,2022-053BE,2026-07-22T06:00:02.000160,15.30635600,.00011796,53.1612,247.8686,116.7972,197.1759,0,U,52708,999,580,.1897611E-2,.57042E-3,0
COSMOS 2556,2022-054A,2026-07-22T07:16:00.907392,15.26265963,.00017206,97.6299,153.7291,66.8366,293.3053,0,U,52713,999,23209,.78878289E-4,.1968E-4,0
2022-056B,2022-056B,2026-07-22T06:32:44.924352,13.29590181,.0043389,86.0055,85.3356,306.5343,53.1802,0,U,52717,999,20297,-.95353954E-3,-.43E-5,0
GHGSAT-C3,2022-057F,2026-07-22T06:07:44.274720,15.34739881,.00056937,97.6639,350.2447,11.8786,348.2589,0,U,52737,999,23091,.20291128E-3,.675E-4,0
GHGSAT-C5,2022-057N,2026-07-22T07:04:32.842848,15.34716662,.00063859,97.6725,351.8999,8.6270,351.5081,0,U,52744,999,23092,.20557323E-3,.6835E-4,0
GHGSAT-C4,2022-057Q,2026-07-22T08:11:33.402912,15.34727740,.0005486,97.6564,349.1297,353.6880,6.4293,0,U,52746,999,23093,.20583782E-3,.6846E-4,0
HAWK-5C,2022-057Y,2026-07-22T05:56:58.331040,15.52503024,.00023563,97.6629,5.2138,310.3747,49.7299,0,U,52754,999,23178,.31662914E-3,.19311E-3,0
HAWK-5B,2022-057AA,2026-07-22T05:56:43.927296,15.52499057,.00030217,97.6639,3.5686,296.9714,63.1229,0,U,52756,999,23178,.31732804E-3,.19353E-3,0
HAWK-5A,2022-057AB,2026-07-22T05:56:25.907712,15.52502529,.00029202,97.6636,4.3983,303.1478,56.9494,0,U,52757,999,23178,.32081569E-3,.19569E-3,0
VIGORIDE-3,2022-057AE,2026-07-22T06:21:12.080160,15.27597820,.00082594,97.6646,344.1859,11.5492,348.5935,0,U,52760,999,23051,.19378185E-3,.5154E-4,0
ION SCV-006,2022-057AF,2026-07-22T06:04:24.810816,15.46034482,.0016137,97.6137,353.5856,351.7739,8.3242,0,U,52761,999,23153,.25376433E-3,.12361E-3,0
SHERPA-AC1,2022-057AH,2026-07-21T20:14:58.477632,15.36693353,.00066008,97.6727,353.5345,338.9413,21.1558,0,U,52763,999,23102,.19414528E-3,.6874E-4,0
OMNI-L2,2022-057AR,2026-07-22T04:16:40.927008,14.81449366,.00062871,97.4695,263.1832,195.3454,164.7570,0,U,52771,999,22557,.12786779E-3,.954E-5,0
GEESAT-1 01,2022-058A,2026-07-22T06:20:41.987040,14.81489848,.00224312,49.9945,40.4740,36.1842,324.0608,0,U,52785,999,22513,.18321929E-3,.1229E-4,0
GEESAT-1 02,2022-058B,2026-07-22T05:04:56.150400,14.81494592,.00229395,50.0014,41.0185,26.1426,334.0664,0,U,52786,999,22512,.18115175E-3,.1213E-4,0
GEESAT-1 03,2022-058C,2026-07-22T04:11:23.168544,14.81482577,.00080214,49.9882,39.7786,237.9745,122.0413,0,U,52787,999,22512,.18411669E-3,.1236E-4,0
GEESAT-1 04,2022-058D,2026-07-22T04:21:27.367200,14.81503937,.00095441,50.0053,41.4562,283.1194,76.8679,0,U,52788,999,22511,.18036736E-3,.1206E-4,0
GEESAT-1 05,2022-058E,2026-07-22T02:30:52.958304,15.00912882,.00024874,49.9876,14.4351,219.2189,140.8576,0,U,52789,999,22545,.35560671E-3,.4322E-4,0
GEESAT-1 06,2022-058F,2026-07-22T06:52:40.190592,14.81519022,.00333496,50.0063,40.8171,280.9743,78.7443,0,U,52790,999,22513,.16788572E-3,.1113E-4,0
GEESAT-1 07,2022-058G,2026-07-22T04:00:03.839040,14.81492314,.00124852,49.9896,39.9243,228.7621,131.2241,0,U,52791,999,22511,.18302956E-3,.1227E-4,0
GEESAT-1 08,2022-058H,2026-07-22T04:32:33.554400,14.81492749,.0020076,49.9944,39.8924,64.3401,295.9607,0,U,52792,999,22512,.18966283E-3,.128E-4,0
GEESAT-1 09,2022-058J,2026-07-22T06:28:33.886560,15.00792197,.00064974,49.9984,14.7922,305.3302,54.7035,0,U,52793,999,22551,.33650173E-3,.4062E-4,0
NILESAT 301,2022-061A,2026-07-22T07:47:15.628416,1.00270726,.00036921,0.0526,331.8702,109.1441,328.8469,0,U,52817,999,1508,0,-.55E-6,0
STARLINK-4091,2022-062A,2026-07-22T06:00:02.000160,15.27531120,.00018723,53.1602,149.1288,60.5761,356.5424,0,U,52830,999,574,.42962498E-1,.1284078E-1,0
STARLINK-4089,2022-062B,2026-07-22T06:00:02.000160,15.25568073,.00009535,53.1607,149.1089,67.2446,301.6475,0,U,52831,999,573,.45185271E-2,.117721E-2,0
STARLINK-4083,2022-062C,2026-07-22T06:00:02.000160,15.25139198,.00012275,53.1609,149.1358,57.9038,316.0424,0,U,52832,999,570,.45103284E-1,.1251851E-1,0
STARLINK-4086,2022-062D,2026-07-22T06:00:02.000160,15.23229589,.00016654,53.1602,149.1608,90.8952,290.3965,0,U,52833,999,580,.18675691E-2,.44723E-3,0
STARLINK-4108,2022-062E,2026-07-22T06:00:02.000160,15.25906738,.000188,53.1590,149.0671,77.0393,32.7005,0,U,52834,999,580,.42782852E-1,.1211328E-1,0
STARLINK-4080,2022-062F,2026-07-22T06:00:02.000160,15.25706470,.00020317,53.1593,149.0785,82.3061,41.6664,0,U,52835,999,579,.45095902E-1,.1275045E-1,0
STARLINK-4043,2022-062G,2026-07-22T06:00:02.000160,15.36575116,.0001347,53.2235,127.7319,71.9058,356.0644,0,U,52836,999,588,-.19391183E-1,-.653577E-2,0
STARLINK-4036,2022-062H,2026-07-22T06:00:02.000160,15.21765786,.00014725,53.1593,149.2838,62.0925,17.3609,0,U,52837,999,574,.35097626E-2,.81172E-3,0
STARLINK-4092,2022-062J,2026-07-22T06:00:02.000160,15.24535130,.00019251,53.1590,149.1451,81.6600,43.5484,0,U,52838,999,569,.44961136E-1,.122302E-1,0
STARLINK-4048,2022-062K,2026-07-22T06:00:02.000160,15.25732764,.00016504,53.1603,149.0908,97.9932,121.3212,0,U,52839,999,579,.45215692E-1,.1279946E-1,0
STARLINK-4049,2022-062L,2026-07-22T06:00:02.000160,15.45627807,.00009761,53.2135,123.1359,67.5185,190.8346,0,U,52840,999,589,-.16605872E-1,-.749457E-2,0
STARLINK-4065,2022-062M,2026-07-22T06:00:02.000160,15.25415818,.00016303,53.1611,148.9424,88.3788,266.4291,0,U,52841,999,574,.36330401E-2,.93846E-3,0
STARLINK-4046,2022-062N,2026-07-22T06:00:02.000160,15.23621033,.00021927,53.1594,149.0627,77.7072,95.8084,0,U,52842,999,573,.35681553E-2,.87264E-3,0
STARLINK-4188,2022-062P,2026-07-22T06:00:02.000160,15.24748747,.00008926,53.1610,149.1684,94.0740,184.4946,0,U,52843,999,574,.45705069E-1,.1254162E-1,0
STARLINK-4208,2022-062Q,2026-07-22T06:00:02.000160,15.30819215,.00014863,53.1591,148.4737,95.9230,99.7490,0,U,52844,999,579,.42376704E-2,.12983E-2,0
STARLINK-4168,2022-062R,2026-07-22T06:00:02.000160,15.25932447,.00011166,53.1613,149.1612,96.9178,200.7664,0,U,52845,999,574,.46391165E-2,.122282E-2,0
STARLINK-4212,2022-062S,2026-07-22T06:00:02.000160,15.23215118,.00017314,53.1598,149.2939,100.1273,93.2992,0,U,52846,999,579,.5109357E-1,.1327436E-1,0
STARLINK-4206,2022-062T,2026-07-22T06:00:02.000160,15.17326542,.00016916,53.1589,149.5895,71.5351,28.0779,0,U,52847,999,570,.3771052E-2,.76623E-3,0
STARLINK-4202,2022-062U,2026-07-22T06:00:02.000160,15.13878708,.00008664,53.1599,149.6915,115.2299,192.2522,0,U,52848,999,579,.40726533E-2,.75026E-3,0
STARLINK-4197,2022-062V,2026-07-22T06:00:02.000160,15.24519447,.00021649,53.1610,138.9269,77.3237,42.0254,0,U,52849,999,570,.40206662E-2,.101241E-2,0
STARLINK-4187,2022-062W,2026-07-22T06:00:02.000160,15.28135290,.00009302,53.1609,149.2364,98.5259,164.1665,0,U,52850,999,574,.41328492E-1,.1255615E-1,0
STARLINK-3809,2022-062X,2026-07-22T03:44:45.000960,15.35412990,.00012019,53.1608,135.8180,88.2903,271.8238,0,U,52851,999,22628,-.56075654E-4,-.2337E-4,0
STARLINK-4184,2022-062Y,2026-07-22T06:00:02.000160,15.28042191,.0002242,53.1614,138.8675,66.9142,61.9027,0,U,52852,999,570,.49983539E-2,.14085E-2,0
STARLINK-4189,2022-062Z,2026-07-22T05:05:22.233696,15.97130559,.00006157,53.2101,122.9771,113.0097,247.0998,0,U,52853,999,22647,.14355894E-2,.637607E-2,.18542576E-3
STARLINK-4204,2022-062AA,2026-07-22T06:00:02.000160,15.25463382,.00013629,53.1609,138.8962,101.2315,72.0741,0,U,52854,999,573,.42231356E-2,.109534E-2,0
STARLINK-4209,2022-062AB,2026-07-22T02:59:15.274176,15.30267798,.00015629,53.1622,137.8877,66.3895,293.7270,0,U,52855,999,22625,.38604982E-2,.116019E-2,0
STARLINK-4201,2022-062AC,2026-07-22T06:00:02.000160,15.26193143,.0002288,53.1612,139.0268,71.2761,75.1313,0,U,52856,999,579,.51437199E-2,.136968E-2,0
STARLINK-4199,2022-062AD,2026-07-22T06:00:02.000160,15.24581819,.00016324,53.1590,138.9623,79.5495,160.4712,0,U,52857,999,574,.3927117E-2,.99031E-3,0
STARLINK-4198,2022-062AE,2026-07-22T06:00:02.000160,15.26159242,.00012866,53.1591,138.8729,87.4227,152.2306,0,U,52858,999,579,.38570405E-2,.102026E-2,0
STARLINK-4196,2022-062AF,2026-07-22T06:00:02.000160,15.27000199,.00008298,53.1594,138.8284,84.2070,244.2128,0,U,52859,999,573,.37034615E-2,.100456E-2,0
STARLINK-4191,2022-062AG,2026-07-22T06:00:02.000160,15.25526030,.00016385,53.1588,138.8452,75.0885,203.7698,0,U,52860,999,574,.39136366E-2,.101563E-2,0
STARLINK-4112,2022-062AH,2026-07-22T01:51:51.171840,15.31702135,.00012777,53.1623,135.1103,76.2926,283.8218,0,U,52861,999,22629,.28410616E-4,.517E-5,0
STARLINK-4010,2022-062AJ,2026-07-22T01:18:38.520864,15.35416419,.00012041,53.1628,136.2115,119.3008,240.8115,0,U,52862,999,22627,.23258857E-3,.7745E-4,0
STARLINK-4270,2022-062AK,2026-07-22T06:00:02.000160,15.27501015,.00019816,53.1606,138.5640,74.1074,100.2107,0,U,52863,999,575,.39937612E-2,.110168E-2,0
STARLINK-4267,2022-062AL,2026-07-22T06:00:02.000160,15.26670414,.00010373,53.1596,138.7989,77.7891,306.7071,0,U,52864,999,579,.39684334E-2,.106687E-2,0
STARLINK-4274,2022-062AM,2026-07-22T06:00:02.000160,15.25043208,.0001611,53.1608,138.8742,86.5830,339.4786,0,U,52865,999,574,.40644193E-2,.104004E-2,0
STARLINK-4272,2022-062AN,2026-07-22T06:00:02.000160,15.25849656,.00013899,53.1597,138.8841,74.1953,306.4026,0,U,52866,999,573,.39242465E-2,.102855E-2,0
STARLINK-4126,2022-062AP,2026-07-22T03:41:38.891040,15.34408949,.00008947,53.1625,135.6889,99.8299,260.2804,0,U,52867,999,22629,.74397875E-4,.2139E-4,0
